FLOCK 4Q-16             
1 58271U 23174R   26195.15641362  .00014291  00000+0  25333-3 0  9996
2 58271  97.3834 283.9109 0006861  80.2999 279.9028 15.50341304149758
FLOCK 4Q-11             
1 58273U 23174T   26195.19429822  .00014050  00000+0  24478-3 0  9999
2 58273  97.3865 284.5838 0006466  75.0561 285.1406 15.50839456149779
FLOCK 4Q-28             
1 58280U 23174AA  26195.18664635  .00019961  00000+0  28045-3 0  9999
2 58280  97.3890 287.3026 0004918  66.2512 293.9258 15.56729054149942
FLOCK 4Q-27             
1 58282U 23174AC  26195.18856619  .00020552  00000+0  28671-3 0  9999
2 58282  97.3816 286.7117 0004095  72.0658 288.1043 15.56919649149958
FLOCK 4Q-7              
1 58318U 23174BQ  26195.20700994  .00022235  00000+0  30542-3 0  9996
2 58318  97.3917 287.6482 0004573  46.7542 313.4094 15.57320546149957
FLOCK 4Q-2              
1 58320U 23174BS  26195.17910640  .00016926  00000+0  29487-3 0  9992
2 58320  97.3847 284.2815 0004924  54.7377 305.4335 15.50807527149782
FLOCK 4Q-9              
1 58322U 23174BU  26195.19613567  .00017183  00000+0  29398-3 0  9991
2 58322  97.3854 284.4106 0005590  55.4497 304.7282 15.51312189149776
FLOCK 4Q-4              
1 58327U 23174BZ  26195.14487466  .00014703  00000+0  26534-3 0  9992
2 58327  97.3836 283.4746 0005933  77.7813 282.4102 15.49829716149735
FLOCK 4Q-13             
1 58328U 23174CA  26195.19638572  .00015499  00000+0  25118-3 0  9994
2 58328  97.4011 286.8246 0006003  58.3278 301.8560 15.52852726149862
FLOCK 4BE-18            
1 60480U 24149N   26195.20097609  .00008241  00000+0  19085-3 0  9994
2 60480  97.3735 279.2278 0005052 147.6731 212.4827 15.42695739106477
FLOCK 4BE-7             
1 60481U 24149P   26195.16842275  .00013657  00000+0  32834-3 0  9991
2 60481  97.3761 278.4868 0004178 150.9602 209.1878 15.41426673106405
FLOCK 4BE-36            
1 60486U 24149U   26195.15799221  .00010341  00000+0  23245-3 0  9990
2 60486  97.3747 279.9234 0004621 155.3129 204.8341 15.43518842106514
FLOCK 4BE-25            
1 60487U 24149V   26195.19768971  .00009083  00000+0  23328-3 0  9996
2 60487  97.3800 278.5429 0003557 144.9107 215.2373 15.39528787106394
FLOCK 4BE-31            
1 60488U 24149W   26195.16288579  .00013638  00000+0  28972-3 0  9996
2 60488  97.3802 280.8681 0003667 154.0087 206.1346 15.45129418106545
FLOCK 4BE-20            
1 60489U 24149X   26195.17434205  .00008847  00000+0  23274-3 0  9993
2 60489  97.3697 277.3306 0004928 156.0910 204.0565 15.38793694106366
FLOCK 4BE-23            
1 60490U 24149Y   26195.17192898  .00008372  00000+0  22359-3 0  9990
2 60490  97.3782 277.7182 0004789 160.6013 199.5415 15.38347837106343
