{"fetched_at":"2026-07-14T17:40:25.184Z","source":"https://celestrak.org/NORAD/elements/gp.php?GROUP=planet&FORMAT=JSON","constellation":"superdove","records":[{"OBJECT_NAME":"FLOCK 4Q-16","OBJECT_ID":"2023-174R","EPOCH":"2026-07-14T03:45:14.136768","CLASSIFICATION_TYPE":"U","MEAN_MOTION":15.50341304,"ECCENTRICITY":0.0006861,"INCLINATION":97.3834,"RA_OF_ASC_NODE":283.9109,"ARG_OF_PERICENTER":80.2999,"MEAN_ANOMALY":279.9028,"EPHEMERIS_TYPE":0,"NORAD_CAT_ID":58271,"ELEMENT_SET_NO":999,"REV_AT_EPOCH":14975,"BSTAR":0.00025333,"MEAN_MOTION_DOT":0.00014291,"MEAN_MOTION_DDOT":0},{"OBJECT_NAME":"FLOCK 4Q-11","OBJECT_ID":"2023-174T","EPOCH":"2026-07-14T04:39:47.366208","CLASSIFICATION_TYPE":"U","MEAN_MOTION":15.50839456,"ECCENTRICITY":0.0006466,"INCLINATION":97.3865,"RA_OF_ASC_NODE":284.5838,"ARG_OF_PERICENTER":75.0561,"MEAN_ANOMALY":285.1406,"EPHEMERIS_TYPE":0,"NORAD_CAT_ID":58273,"ELEMENT_SET_NO":999,"REV_AT_EPOCH":14977,"BSTAR":0.00024478,"MEAN_MOTION_DOT":0.0001405,"MEAN_MOTION_DDOT":0},{"OBJECT_NAME":"FLOCK 4Q-28","OBJECT_ID":"2023-174AA","EPOCH":"2026-07-14T04:28:46.244640","CLASSIFICATION_TYPE":"U","MEAN_MOTION":15.56729054,"ECCENTRICITY":0.0004918,"INCLINATION":97.389,"RA_OF_ASC_NODE":287.3026,"ARG_OF_PERICENTER":66.2512,"MEAN_ANOMALY":293.9258,"EPHEMERIS_TYPE":0,"NORAD_CAT_ID":58280,"ELEMENT_SET_NO":999,"REV_AT_EPOCH":14994,"BSTAR":0.00028045,"MEAN_MOTION_DOT":0.00019961,"MEAN_MOTION_DDOT":0},{"OBJECT_NAME":"FLOCK 4Q-27","OBJECT_ID":"2023-174AC","EPOCH":"2026-07-14T04:31:32.118816","CLASSIFICATION_TYPE":"U","MEAN_MOTION":15.56919649,"ECCENTRICITY":0.0004095,"INCLINATION":97.3816,"RA_OF_ASC_NODE":286.7117,"ARG_OF_PERICENTER":72.0658,"MEAN_ANOMALY":288.1043,"EPHEMERIS_TYPE":0,"NORAD_CAT_ID":58282,"ELEMENT_SET_NO":999,"REV_AT_EPOCH":14995,"BSTAR":0.00028671,"MEAN_MOTION_DOT":0.00020552,"MEAN_MOTION_DDOT":0},{"OBJECT_NAME":"FLOCK 4Q-7","OBJECT_ID":"2023-174BQ","EPOCH":"2026-07-14T04:58:05.658816","CLASSIFICATION_TYPE":"U","MEAN_MOTION":15.57320546,"ECCENTRICITY":0.0004573,"INCLINATION":97.3917,"RA_OF_ASC_NODE":287.6482,"ARG_OF_PERICENTER":46.7542,"MEAN_ANOMALY":313.4094,"EPHEMERIS_TYPE":0,"NORAD_CAT_ID":58318,"ELEMENT_SET_NO":999,"REV_AT_EPOCH":14995,"BSTAR":0.00030542,"MEAN_MOTION_DOT":0.00022235,"MEAN_MOTION_DDOT":0},{"OBJECT_NAME":"FLOCK 4Q-2","OBJECT_ID":"2023-174BS","EPOCH":"2026-07-14T04:17:54.792960","CLASSIFICATION_TYPE":"U","MEAN_MOTION":15.50807527,"ECCENTRICITY":0.0004924,"INCLINATION":97.3847,"RA_OF_ASC_NODE":284.2815,"ARG_OF_PERICENTER":54.7377,"MEAN_ANOMALY":305.4335,"EPHEMERIS_TYPE":0,"NORAD_CAT_ID":58320,"ELEMENT_SET_NO":999,"REV_AT_EPOCH":14978,"BSTAR":0.00029487,"MEAN_MOTION_DOT":0.00016926,"MEAN_MOTION_DDOT":0},{"OBJECT_NAME":"FLOCK 4Q-9","OBJECT_ID":"2023-174BU","EPOCH":"2026-07-14T04:42:26.121888","CLASSIFICATION_TYPE":"U","MEAN_MOTION":15.51312189,"ECCENTRICITY":0.000559,"INCLINATION":97.3854,"RA_OF_ASC_NODE":284.4106,"ARG_OF_PERICENTER":55.4497,"MEAN_ANOMALY":304.7282,"EPHEMERIS_TYPE":0,"NORAD_CAT_ID":58322,"ELEMENT_SET_NO":999,"REV_AT_EPOCH":14977,"BSTAR":0.00029398,"MEAN_MOTION_DOT":0.00017183,"MEAN_MOTION_DDOT":0},{"OBJECT_NAME":"FLOCK 4Q-4","OBJECT_ID":"2023-174BZ","EPOCH":"2026-07-14T03:28:37.170624","CLASSIFICATION_TYPE":"U","MEAN_MOTION":15.49829716,"ECCENTRICITY":0.0005933,"INCLINATION":97.3836,"RA_OF_ASC_NODE":283.4746,"ARG_OF_PERICENTER":77.7813,"MEAN_ANOMALY":282.4102,"EPHEMERIS_TYPE":0,"NORAD_CAT_ID":58327,"ELEMENT_SET_NO":999,"REV_AT_EPOCH":14973,"BSTAR":0.00026534,"MEAN_MOTION_DOT":0.00014703,"MEAN_MOTION_DDOT":0},{"OBJECT_NAME":"FLOCK 4Q-13","OBJECT_ID":"2023-174CA","EPOCH":"2026-07-14T04:42:47.726208","CLASSIFICATION_TYPE":"U","MEAN_MOTION":15.52852726,"ECCENTRICITY":0.0006003,"INCLINATION":97.4011,"RA_OF_ASC_NODE":286.8246,"ARG_OF_PERICENTER":58.3278,"MEAN_ANOMALY":301.856,"EPHEMERIS_TYPE":0,"NORAD_CAT_ID":58328,"ELEMENT_SET_NO":999,"REV_AT_EPOCH":14986,"BSTAR":0.00025118,"MEAN_MOTION_DOT":0.00015499,"MEAN_MOTION_DDOT":0},{"OBJECT_NAME":"FLOCK 4BE-18","OBJECT_ID":"2024-149N","EPOCH":"2026-07-14T04:49:24.334176","CLASSIFICATION_TYPE":"U","MEAN_MOTION":15.42695739,"ECCENTRICITY":0.0005052,"INCLINATION":97.3735,"RA_OF_ASC_NODE":279.2278,"ARG_OF_PERICENTER":147.6731,"MEAN_ANOMALY":212.4827,"EPHEMERIS_TYPE":0,"NORAD_CAT_ID":60480,"ELEMENT_SET_NO":999,"REV_AT_EPOCH":10647,"BSTAR":0.00019085,"MEAN_MOTION_DOT":0.00008241,"MEAN_MOTION_DDOT":0},{"OBJECT_NAME":"FLOCK 4BE-7","OBJECT_ID":"2024-149P","EPOCH":"2026-07-14T04:02:31.725600","CLASSIFICATION_TYPE":"U","MEAN_MOTION":15.41426673,"ECCENTRICITY":0.0004178,"INCLINATION":97.3761,"RA_OF_ASC_NODE":278.4868,"ARG_OF_PERICENTER":150.9602,"MEAN_ANOMALY":209.1878,"EPHEMERIS_TYPE":0,"NORAD_CAT_ID":60481,"ELEMENT_SET_NO":999,"REV_AT_EPOCH":10640,"BSTAR":0.00032834,"MEAN_MOTION_DOT":0.00013657,"MEAN_MOTION_DDOT":0},{"OBJECT_NAME":"FLOCK 4BE-36","OBJECT_ID":"2024-149U","EPOCH":"2026-07-14T03:47:30.526944","CLASSIFICATION_TYPE":"U","MEAN_MOTION":15.43518842,"ECCENTRICITY":0.0004621,"INCLINATION":97.3747,"RA_OF_ASC_NODE":279.9234,"ARG_OF_PERICENTER":155.3129,"MEAN_ANOMALY":204.8341,"EPHEMERIS_TYPE":0,"NORAD_CAT_ID":60486,"ELEMENT_SET_NO":999,"REV_AT_EPOCH":10651,"BSTAR":0.00023245,"MEAN_MOTION_DOT":0.00010341,"MEAN_MOTION_DDOT":0},{"OBJECT_NAME":"FLOCK 4BE-25","OBJECT_ID":"2024-149V","EPOCH":"2026-07-14T04:44:40.390944","CLASSIFICATION_TYPE":"U","MEAN_MOTION":15.39528787,"ECCENTRICITY":0.0003557,"INCLINATION":97.38,"RA_OF_ASC_NODE":278.5429,"ARG_OF_PERICENTER":144.9107,"MEAN_ANOMALY":215.2373,"EPHEMERIS_TYPE":0,"NORAD_CAT_ID":60487,"ELEMENT_SET_NO":999,"REV_AT_EPOCH":10639,"BSTAR":0.00023328,"MEAN_MOTION_DOT":0.00009083,"MEAN_MOTION_DDOT":0},{"OBJECT_NAME":"FLOCK 4BE-31","OBJECT_ID":"2024-149W","EPOCH":"2026-07-14T03:54:33.332256","CLASSIFICATION_TYPE":"U","MEAN_MOTION":15.45129418,"ECCENTRICITY":0.0003667,"INCLINATION":97.3802,"RA_OF_ASC_NODE":280.8681,"ARG_OF_PERICENTER":154.0087,"MEAN_ANOMALY":206.1346,"EPHEMERIS_TYPE":0,"NORAD_CAT_ID":60488,"ELEMENT_SET_NO":999,"REV_AT_EPOCH":10654,"BSTAR":0.00028972,"MEAN_MOTION_DOT":0.00013638,"MEAN_MOTION_DDOT":0},{"OBJECT_NAME":"FLOCK 4BE-20","OBJECT_ID":"2024-149X","EPOCH":"2026-07-14T04:11:03.153120","CLASSIFICATION_TYPE":"U","MEAN_MOTION":15.38793694,"ECCENTRICITY":0.0004928,"INCLINATION":97.3697,"RA_OF_ASC_NODE":277.3306,"ARG_OF_PERICENTER":156.091,"MEAN_ANOMALY":204.0565,"EPHEMERIS_TYPE":0,"NORAD_CAT_ID":60489,"ELEMENT_SET_NO":999,"REV_AT_EPOCH":10636,"BSTAR":0.00023274,"MEAN_MOTION_DOT":0.00008847,"MEAN_MOTION_DDOT":0},{"OBJECT_NAME":"FLOCK 4BE-23","OBJECT_ID":"2024-149Y","EPOCH":"2026-07-14T04:07:34.663872","CLASSIFICATION_TYPE":"U","MEAN_MOTION":15.38347837,"ECCENTRICITY":0.0004789,"INCLINATION":97.3782,"RA_OF_ASC_NODE":277.7182,"ARG_OF_PERICENTER":160.6013,"MEAN_ANOMALY":199.5415,"EPHEMERIS_TYPE":0,"NORAD_CAT_ID":60490,"ELEMENT_SET_NO":999,"REV_AT_EPOCH":10634,"BSTAR":0.00022359,"MEAN_MOTION_DOT":0.00008372,"MEAN_MOTION_DDOT":0}]}
